     2              NAVIGATION DATA                         RINEX VERSION / TYPE
CCRINEXN V1.6.0 UX  CDDIS               23-JAN-26 23:31     PGM / RUN BY / DATE 
IGS BROADCAST EPHEMERIS FILE                                COMMENT             
    0.2421D-07  0.7451D-08 -0.1192D-06  0.1192D-06          ION ALPHA           
    0.1434D+06 -0.1475D+06  0.6554D+05 -0.1311D+06          ION BETA            
   -0.279396772385D-08-0.355271367880D-14   589824     2402 DELTA-UTC: A0,A1,T,W
    18                                                      LEAP SECONDS        
                                                            END OF HEADER       
30 26  1 22  4  0  0.0 0.956808216870D-04 0.123918653117D-10 0.000000000000D+00
    0.340000000000D+02-0.422500000000D+02 0.470662462124D-08-0.306195282555D+01
   -0.227056443691D-05 0.790251069702D-02 0.119172036648D-04 0.515378752708D+04
    0.360000000000D+06 0.167638063431D-07 0.661976064566D+00-0.670552253723D-07
    0.936294285078D+00 0.136093750000D+03-0.234521456440D+01-0.792211570220D-08
    0.165364030933D-09 0.100000000000D+01 0.240200000000D+04 0.000000000000D+00
    0.200000000000D+01 0.000000000000D+00 0.419095158577D-08 0.340000000000D+02
    0.356364000000D+06 0.400000000000D+01 0.000000000000D+00 0.000000000000D+00
31 26  1 22  4  0  0.0-0.171301886439D-03 0.204636307899D-11 0.000000000000D+00
    0.520000000000D+02-0.429687500000D+02 0.435661004172D-08 0.226412739982D+01
   -0.240467488766D-05 0.108586391434D-01 0.130571424961D-04 0.515377044106D+04
    0.360000000000D+06-0.186264514923D-07 0.694443758279D+00-0.201165676117D-06
    0.954799411731D+00 0.124281250000D+03 0.932248528076D+00-0.780282501898D-08
    0.119647840956D-09 0.100000000000D+01 0.240200000000D+04 0.000000000000D+00
    0.200000000000D+01 0.000000000000D+00-0.135041773319D-07 0.520000000000D+02
    0.352818000000D+06 0.400000000000D+01 0.000000000000D+00 0.000000000000D+00
32 26  1 22  4  0  0.0-0.152251217514D-03 0.172803993337D-10 0.000000000000D+00
    0.220000000000D+02-0.916875000000D+02 0.463947896721D-08 0.598723572749D+00
   -0.466965138912D-05 0.921315525193D-02 0.535510480404D-05 0.515371501541D+04
    0.360000000000D+06-0.113621354103D-06-0.385208225766D+00 0.745058059692D-07
    0.967696367318D+00 0.283093750000D+03-0.202380620173D+01-0.845535219936D-08
   -0.487877464912D-09 0.100000000000D+01 0.240200000000D+04 0.000000000000D+00
    0.200000000000D+01 0.000000000000D+00 0.931322574616D-09 0.220000000000D+02
    0.352818000000D+06 0.400000000000D+01 0.000000000000D+00 0.000000000000D+00
16 26  1 22  5 59 44.0 0.192753970623D-03 0.761701812735D-11 0.000000000000D+00
    0.150000000000D+02 0.423125000000D+02 0.491127600293D-08 0.194946001591D+01
    0.195018947125D-05 0.150439671706D-01 0.619702041149D-05 0.515362155724D+04
    0.367184000000D+06-0.180676579475D-06 0.180525534297D+01-0.242143869400D-06
    0.957951934360D+00 0.261406250000D+03 0.923606434612D+00-0.828355932921D-08
    0.311441544219D-09 0.100000000000D+01 0.240200000000D+04 0.000000000000D+00
    0.200000000000D+01 0.000000000000D+00-0.102445483208D-07 0.150000000000D+02
    0.360018000000D+06 0.400000000000D+01 0.000000000000D+00 0.000000000000D+00
17 26  1 22  5 59 44.0-0.399565324187D-04-0.113686837722D-10 0.000000000000D+00
    0.100000000000D+02-0.350625000000D+02 0.476662712058D-08 0.841827968097D+00
   -0.190734863281D-05 0.127904041437D-01 0.676885247230D-05 0.515356368065D+04
    0.367184000000D+06-0.372529029846D-07 0.282289900606D+01-0.257045030594D-06
    0.960000139631D+00 0.247093750000D+03-0.113333335920D+01-0.839534970001D-08
   -0.378944355982D-09 0.100000000000D+01 0.240200000000D+04 0.000000000000D+00
    0.200000000000D+01 0.000000000000D+00-0.111758708954D-07 0.100000000000D+02
    0.360018000000D+06 0.400000000000D+01 0.000000000000D+00 0.000000000000D+00
29 26  1 22  5 59 44.0-0.388865824789D-03 0.648014975013D-11 0.000000000000D+00
    0.220000000000D+02-0.326562500000D+02 0.454590364085D-08 0.914911152373D+00
   -0.168941915035D-05 0.326571916230D-02 0.729411840439D-05 0.515378017426D+04
    0.367184000000D+06 0.428408384323D-07 0.283950110158D+01 0.204890966415D-07
    0.962650095772D+00 0.239406250000D+03 0.274884671024D+01-0.812426697976D-08
   -0.417517391275D-09 0.100000000000D+01 0.240200000000D+04 0.000000000000D+00
    0.200000000000D+01 0.000000000000D+00-0.977888703346D-08 0.220000000000D+02
    0.360018000000D+06 0.400000000000D+01 0.000000000000D+00 0.000000000000D+00
 1 26  1 22  6  0  0.0 0.341452658176D-03-0.409272615798D-11 0.000000000000D+00
    0.400000000000D+02 0.551250000000D+02 0.437482508617D-08-0.138143178675D+00
    0.286847352982D-05 0.139880634379D-02 0.119078904390D-04 0.515363493729D+04
    0.367200000000D+06 0.298023223877D-07-0.239559522332D+01-0.279396772385D-07
    0.958459078319D+00 0.148750000000D+03-0.902284715209D-02-0.796568894578D-08
    0.250010413937D-10 0.100000000000D+01 0.240200000000D+04 0.000000000000D+00
    0.200000000000D+01 0.000000000000D+00-0.884756445885D-08 0.296000000000D+03
    0.360018000000D+06 0.400000000000D+01 0.000000000000D+00 0.000000000000D+00
 2 26  1 22  6  0  0.0 0.219191424549D-04 0.818545231596D-11 0.000000000000D+00
    0.660000000000D+02 0.272500000000D+02 0.427553523606D-08 0.125477657606D+01
    0.131875276566D-05 0.169765304308D-01 0.115297734737D-04 0.515361081314D+04
    0.367200000000D+06 0.435858964920D-06-0.255827631754D+01-0.135973095894D-06
    0.963961483334D+00 0.156187500000D+03-0.844290581486D+00-0.780961101593D-08
   -0.155363614375D-09 0.100000000000D+01 0.240200000000D+04 0.000000000000D+00
    0.200000000000D+01 0.000000000000D+00-0.176951289177D-07 0.660000000000D+02
    0.360018000000D+06 0.400000000000D+01 0.000000000000D+00 0.000000000000D+00
 3 26  1 22  6  0  0.0 0.591834075749D-03-0.104591890704D-10 0.000000000000D+00
    0.400000000000D+02 0.690937500000D+02 0.419053169532D-08-0.236757117107D+01
    0.359490513802D-05 0.636333622970D-02 0.432506203651D-05 0.515364331436D+04
    0.367200000000D+06 0.130385160446D-06-0.140952829880D+01-0.111758708954D-07
    0.992547404383D+00 0.313593750000D+03 0.120935605060D+01-0.800854787388D-08
    0.435018120251D-09 0.100000000000D+01 0.240200000000D+04 0.000000000000D+00
    0.200000000000D+01 0.000000000000D+00 0.139698386192D-08 0.400000000000D+02
    0.360018000000D+06 0.400000000000D+01 0.000000000000D+00 0.000000000000D+00
 4 26  1 22  6  0  0.0 0.396706163883D-04 0.227373675443D-11 0.000000000000D+00
    0.880000000000D+02-0.979062500000D+02 0.457054752451D-08 0.678763456217D+00
   -0.504031777382D-05 0.373423879501D-02 0.501796603203D-05 0.515374764824D+04
    0.367200000000D+06 0.242143869400D-07-0.338182239882D+00 0.298023223877D-07
    0.970517900343D+00 0.283562500000D+03-0.290701729447D+01-0.831713215622D-08
   -0.437161066656D-09 0.100000000000D+01 0.240200000000D+04 0.000000000000D+00
    0.200000000000D+01 0.000000000000D+00-0.465661287308D-08 0.880000000000D+02
    0.362946000000D+06 0.400000000000D+01 0.000000000000D+00 0.000000000000D+00
 5 26  1 22  6  0  0.0-0.227681361139D-03-0.682121026330D-12 0.000000000000D+00
    0.520000000000D+02 0.676562500000D+02 0.444018495153D-08 0.129369381330D+01
    0.351294875145D-05 0.537559750956D-02 0.455789268017D-05 0.515368179321D+04
    0.367200000000D+06-0.165775418282D-06-0.146878690137D+01-0.763684511185D-07
    0.979130916847D+00 0.303218750000D+03 0.142472909727D+01-0.821712799065D-08
    0.353943314588D-09 0.100000000000D+01 0.240200000000D+04 0.000000000000D+00
    0.200000000000D+01 0.000000000000D+00-0.107102096081D-07 0.520000000000D+02
    0.360018000000D+06 0.400000000000D+01 0.000000000000D+00 0.000000000000D+00
 6 26  1 22  6  0  0.0-0.604724511504D-03-0.341060513165D-11 0.000000000000D+00
    0.900000000000D+01 0.440000000000D+02 0.373837000383D-08-0.991717193985D+00
    0.201910734177D-05 0.386757857632D-02 0.116415321827D-04 0.515361264038D+04
    0.367200000000D+06-0.670552253723D-07-0.244617733045D+01-0.577419996262D-07
    0.987418317045D+00 0.169656250000D+03-0.618506780707D+00-0.763888961899D-08
    0.528593446610D-10 0.100000000000D+01 0.240200000000D+04 0.000000000000D+00
    0.200000000000D+01 0.000000000000D+00 0.372529029846D-08 0.900000000000D+01
    0.360018000000D+06 0.400000000000D+01 0.000000000000D+00 0.000000000000D+00
 7 26  1 22  6  0  0.0-0.138594768941D-03-0.522959453519D-11 0.000000000000D+00
    0.150000000000D+02-0.415937500000D+02 0.430196490839D-08-0.189801478711D+01
   -0.224448740482D-05 0.202164548682D-01 0.120010226965D-04 0.515364413261D+04
    0.367200000000D+06 0.383704900742D-06 0.670346656526D+00-0.108033418655D-06
    0.951043619721D+00 0.137250000000D+03-0.200374930228D+01-0.758567311659D-08
    0.133934150323D-09 0.100000000000D+01 0.240200000000D+04 0.000000000000D+00
    0.200000000000D+01 0.000000000000D+00-0.107102096081D-07 0.150000000000D+02
    0.360021000000D+06 0.400000000000D+01 0.000000000000D+00 0.000000000000D+00
 8 26  1 22  6  0  0.0 0.501444097608D-03-0.443378667114D-11 0.000000000000D+00
    0.540000000000D+02-0.263750000000D+02 0.514592863430D-08 0.949838033321D+00
   -0.127404928207D-05 0.114445186919D-01 0.628829002380D-05 0.515366511536D+04
    0.367200000000D+06-0.108033418655D-06 0.271885640246D+01 0.162050127983D-06
    0.944216207378D+00 0.249906250000D+03 0.504870550525D+00-0.849249660371D-08
   -0.526807657939D-09 0.100000000000D+01 0.240200000000D+04 0.000000000000D+00
    0.200000000000D+01 0.000000000000D+00 0.465661287308D-08 0.540000000000D+02
    0.365676000000D+06 0.400000000000D+01 0.000000000000D+00 0.000000000000D+00
